PROBA-1                 
1 26958U 01049B   26157.58259255  .00002058  00000+0  13574-3 0  9993
2 26958  97.9594 165.7457 0055387 157.2462 203.1238 15.07446015342028
CUTE-1 (CO-55)          
1 27844U 03031E   26157.49994928  .00000321  00000+0  15775-3 0  9990
2 27844  98.6735 166.1932 0008850 210.1158 149.9513 14.24329258190150
CUBESAT XI-IV (CO-57)   
1 27848U 03031J   26157.27219909  .00000276  00000+0  14040-3 0  9992
2 27848  98.6767 165.6897 0008444 231.2681 128.7744 14.23615092189823
APRIZESAT 4             
1 35684U 09041D   26157.19822005  .00000839  00000+0  10654-3 0  9996
2 35684  98.1412 232.2996 0043196 359.0984   1.0144 14.83864919909738
APRIZESAT 3             
1 35686U 09041F   26157.39884419  .00001548  00000+0  13773-3 0  9990
2 35686  98.2057 310.1071 0062864 102.4108 258.4156 14.96211856914767
PROBA-2                 
1 36037U 09059B   26157.44269836  .00000214  00000+0  60400-4 0  9995
2 36037  98.2450 340.9446 0012323 318.3044  41.7213 14.54857900879963
APRIZESAT 5             
1 37792U 11044E   26157.53553254  .00001338  00000+0  17588-3 0  9997
2 37792  98.2452  90.2743 0053133  38.2578 322.2385 14.81052702797214
APRIZESAT 6             
1 37793U 11044F   26156.51628799  .00000814  00000+0  12180-3 0  9993
2 37793  98.2372  66.7773 0044238 122.3000  58.2477 14.76898404795428
PROBA-V                 
1 39159U 13021A   26157.43586302  .00000091  00000+0  58128-4 0  9993
2 39159  98.3579 136.5736 0004630 149.6174 210.5274 14.23594722679581
APRIZESAT 7             
1 39416U 13066A   26157.15188332  .00001540  00000+0  15777-3 0  9990
2 39416  97.7702 110.5307 0034355 247.0865 112.6726 14.91541126679580
APRIZESAT 8             
1 39425U 13066K   26157.58138528  .00001254  00000+0  14164-3 0  9990
2 39425  97.8216 105.1975 0044981 322.4691  37.3387 14.87631967678092
BUGSAT-1 (TITA)         
1 40014U 14033E   26157.60426073  .00007956  00000+0  42043-3 0  9991
2 40014  98.0419 249.5350 0027248 215.0704 144.8734 15.15471211654231
SAUDISAT 4              
1 40016U 14033G   26157.63620826  .00000873  00000+0  12140-3 0  9994
2 40016  97.7572 304.1370 0046184 107.2479 253.3795 14.79530218644515
APRIZESAT 9             
1 40018U 14033J   26156.87254485  .00000758  00000+0  11882-3 0  9999
2 40018  97.9048 290.3486 0064978 235.9898 123.5128 14.74199706641890
APRIZESAT 10            
1 40019U 14033K   26156.90212951  .00000481  00000+0  83483-4 0  9996
2 40019  97.9637 284.1142 0077719 310.4913  48.9538 14.70872885640592
TECHDEMOSAT-1 (TDS-1)   
1 40076U 14037H   26157.51233169  .00011255  00000+0  63875-3 0  9998
2 40076  98.3813 148.6688 0004798 315.2730  44.8111 15.13135548646619
TECHNOSAT               
1 42829U 17042E   26157.41131952  .00003563  00000+0  25504-3 0  9991
2 42829  97.4272 315.4814 0018942 127.9977 232.2964 15.04891353485082
FLYING LAPTOP           
1 42831U 17042G   26157.58670742  .00004451  00000+0  35115-3 0  9993
2 42831  97.4649 313.5308 0019017 156.3725 203.8377 15.01075819484866
HAWK-A                  
1 43765U 18099H   26157.38727875  .00008399  00000+0  33893-3 0  9997
2 43765  97.3913 209.7644 0033699 325.6578  34.2481 15.24515057411459
HAWK-B                  
1 43794U 18099AN  26157.46169371  .00007584  00000+0  32396-3 0  9991
2 43794  97.3964 209.2755 0031369 344.1256  15.8995 15.22707098411402
HAWK-C                  
1 43799U 18099AT  26157.38817751  .00009877  00000+0  35660-3 0  9993
2 43799  97.3891 210.6252 0039392 325.5437  34.3249 15.27950582412268
SALSAT                  
1 46495U 20068K   26157.28697036  .00010659  00000+0  37345-3 0  9991
2 46495  97.8852 159.6892 0009191 351.5700   8.5383 15.29640191313697
HAWK-2C                 
1 47502U 21006CT  26157.39327936  .00008632  00000+0  26020-3 0  9991
2 47502  97.2280 201.9191 0005502 228.0774 132.0001 15.34532994297845
HAWK-2A                 
1 47505U 21006CW  26157.39587817  .00008436  00000+0  25427-3 0  9992
2 47505  97.2322 202.5932 0004972 232.4988 127.5804 15.34547678297846
HAWK-2B                 
1 47508U 21006CZ  26157.39197228  .00009725  00000+0  29203-3 0  9996
2 47508  97.2190 200.9382 0005496 229.5076 130.5689 15.34618651297845
HAWK-3B                 
1 48931U 21059BE  26157.48300283  .00051989  00000+0  45688-3 0  9996
2 48931  97.6678 353.1855 0003943  19.0571 341.0837 15.68648218276170
HAWK-3C                 
1 48948U 21059BX  26157.54647866  .00053492  00000+0  46969-3 0  9996
2 48948  97.6794 358.9226 0004533  19.5682 340.5751 15.68659715276180
HAWK-3A                 
1 48957U 21059CG  26157.54637692  .00052069  00000+0  45735-3 0  9991
2 48957  97.6737 356.1364 0004465  21.8008 338.3441 15.68657616276181
HAWK-5C                 
1 52754U 22057Y   26157.40026150  .00027044  00000+0  46631-3 0  9997
2 52754  97.6586 316.3762 0005409 114.0834 246.0984 15.51004853224679
HAWK-5B                 
1 52756U 22057AA  26157.40011473  .00027514  00000+0  47429-3 0  9999
2 52756  97.6598 314.7248 0006012 106.9309 253.2601 15.51005299224674
