OBJECT_NAME,OBJECT_ID,EPOCH,MEAN_MOTION,ECCENTRICITY,INCLINATION,RA_OF_ASC_NODE,ARG_OF_PERICENTER,MEAN_ANOMALY,EPHEMERIS_TYPE,CLASSIFICATION_TYPE,NORAD_CAT_ID,ELEMENT_SET_NO,REV_AT_EPOCH,BSTAR,MEAN_MOTION_DOT,MEAN_MOTION_DDOT
PROBA-1,2001-049B,2026-06-06T13:58:55.996320,15.07446015,.00553878,97.9594,165.7457,157.2462,203.1238,0,U,26958,999,34202,.13573685E-3,.2058E-4,0
CUTE-1 (CO-55),2003-031E,2026-06-06T11:59:55.617792,14.24329258,.00088506,98.6735,166.1932,210.1158,149.9513,0,U,27844,999,19015,.15774609E-3,.321E-5,0
CUBESAT XI-IV (CO-57),2003-031J,2026-06-06T06:31:58.001376,14.23615092,.00084449,98.6767,165.6897,231.2681,128.7744,0,U,27848,999,18982,.14039676E-3,.276E-5,0
APRIZESAT 4,2009-041D,2026-06-06T04:45:26.212320,14.83864919,.00431968,98.1412,232.2996,359.0984,1.0144,0,U,35684,999,90973,.10653725E-3,.839E-5,0
APRIZESAT 3,2009-041F,2026-06-06T09:34:20.138016,14.96211856,.0062864,98.2057,310.1071,102.4108,258.4156,0,U,35686,999,91476,.13772634E-3,.1548E-4,0
PROBA-2,2009-059B,2026-06-06T10:37:29.138304,14.54857900,.00123236,98.2450,340.9446,318.3044,41.7213,0,U,36037,999,87996,.60400444E-4,.214E-5,0
APRIZESAT 5,2011-044E,2026-06-06T12:51:10.011456,14.81052702,.00531333,98.2452,90.2743,38.2578,322.2385,0,U,37792,999,79721,.17588273E-3,.1338E-4,0
APRIZESAT 6,2011-044F,2026-06-05T12:23:27.282336,14.76898404,.00442385,98.2372,66.7773,122.3000,58.2477,0,U,37793,999,79542,.12179529E-3,.814E-5,0
PROBA-V,2013-021A,2026-06-06T10:27:38.564928,14.23594722,.00046308,98.3579,136.5736,149.6174,210.5274,0,U,39159,999,67958,.58128391E-4,.91E-6,0
APRIZESAT 7,2013-066A,2026-06-06T03:38:42.718848,14.91541126,.0034355,97.7702,110.5307,247.0865,112.6726,0,U,39416,999,67958,.15777E-3,.154E-4,0
APRIZESAT 8,2013-066K,2026-06-06T13:57:11.688192,14.87631967,.00449818,97.8216,105.1975,322.4691,37.3387,0,U,39425,999,67809,.1416417E-3,.1254E-4,0
BUGSAT-1 (TITA),2014-033E,2026-06-06T14:30:08.127072,15.15471211,.00272488,98.0419,249.5350,215.0704,144.8734,0,U,40014,999,65423,.42042937E-3,.7956E-4,0
SAUDISAT 4,2014-033G,2026-06-06T15:16:08.393664,14.79530218,.00461847,97.7572,304.1370,107.2479,253.3795,0,U,40016,999,64451,.12140373E-3,.873E-5,0
APRIZESAT 9,2014-033J,2026-06-05T20:56:27.875040,14.74199706,.0064978,97.9048,290.3486,235.9898,123.5128,0,U,40018,999,64189,.11882E-3,.758E-5,0
APRIZESAT 10,2014-033K,2026-06-05T21:39:03.989664,14.70872885,.0077719,97.9637,284.1142,310.4913,48.9538,0,U,40019,999,64059,.83483E-4,.481E-5,0
TECHDEMOSAT-1 (TDS-1),2014-037H,2026-06-06T12:17:45.458016,15.13135548,.00047986,98.3813,148.6688,315.2730,44.8111,0,U,40076,999,64661,.63875224E-3,.11255E-3,0
TECHNOSAT,2017-042E,2026-06-06T09:52:18.006528,15.04891353,.00189427,97.4272,315.4814,127.9977,232.2964,0,U,42829,999,48508,.25504047E-3,.3563E-4,0
FLYING LAPTOP,2017-042G,2026-06-06T14:04:51.521088,15.01075819,.00190178,97.4649,313.5308,156.3725,203.8377,0,U,42831,999,48486,.35115415E-3,.4451E-4,0
HAWK-A,2018-099H,2026-06-06T09:17:40.884000,15.24515057,.00336995,97.3913,209.7644,325.6578,34.2481,0,U,43765,999,41145,.33893295E-3,.8399E-4,0
HAWK-B,2018-099AN,2026-06-06T11:04:50.336544,15.22707098,.00313694,97.3964,209.2755,344.1256,15.8995,0,U,43794,999,41140,.32396087E-3,.7584E-4,0
HAWK-C,2018-099AT,2026-06-06T09:18:58.536864,15.27950582,.00393925,97.3891,210.6252,325.5437,34.3249,0,U,43799,999,41226,.35659605E-3,.9877E-4,0
SALSAT,2020-068K,2026-06-06T06:53:14.239104,15.29640191,.00091918,97.8852,159.6892,351.5700,8.5383,0,U,46495,999,31369,.37345248E-3,.10659E-3,0
HAWK-2C,2021-006CT,2026-06-06T09:26:19.336704,15.34532994,.0005502,97.2280,201.9191,228.0774,132.0001,0,U,47502,999,29784,.26019736E-3,.8632E-4,0
HAWK-2A,2021-006CW,2026-06-06T09:30:03.873888,15.34547678,.00049722,97.2322,202.5932,232.4988,127.5804,0,U,47505,999,29784,.25426953E-3,.8436E-4,0
HAWK-2B,2021-006CZ,2026-06-06T09:24:26.404992,15.34618651,.00054965,97.2190,200.9382,229.5076,130.5689,0,U,47508,999,29784,.29203033E-3,.9725E-4,0
HAWK-3B,2021-059BE,2026-06-06T11:35:31.444512,15.68648218,.00039432,97.6678,353.1855,19.0571,341.0837,0,U,48931,999,27617,.45687549E-3,.51989E-3,0
HAWK-3C,2021-059BX,2026-06-06T13:06:55.756224,15.68659715,.00045336,97.6794,358.9226,19.5682,340.5751,0,U,48948,999,27618,.46968765E-3,.53492E-3,0
HAWK-3A,2021-059CG,2026-06-06T13:06:46.965888,15.68657616,.00044654,97.6737,356.1364,21.8008,338.3441,0,U,48957,999,27618,.45735038E-3,.52069E-3,0
HAWK-5C,2022-057Y,2026-06-06T09:36:22.593600,15.51004853,.00054095,97.6586,316.3762,114.0834,246.0984,0,U,52754,999,22467,.46630972E-3,.27044E-3,0
HAWK-5B,2022-057AA,2026-06-06T09:36:09.912672,15.51005299,.00060126,97.6598,314.7248,106.9309,253.2601,0,U,52756,999,22467,.47428596E-3,.27514E-3,0
